#aV2023  8 19  0  0  0.00000000     288 DD+AD WGS84 FIT  NGA
## 2275 518400.00000000   300.00000000 60175 0.0000000000000
+   32     1  2  3  4  5  6  7  8  9 10 11 12 13 14 15 16 17
+         18 19 20 21 22 23 24 25 26 27 28 29 30 31 32  0  0
+          0  0  0  0  0  0  0  0  0  0  0  0  0  0  0  0  0
+          0  0  0  0  0  0  0  0  0  0  0  0  0  0  0  0  0
+          0  0  0  0  0  0  0  0  0  0  0  0  0  0  0  0  0
++         2  2  2  2  2  2  2  2  2  2  2  2  2  2  2  2  2
++         2  2  2  2  2  2  2  2  2  2  2  2  2  2  2  0  0
++         0  0  0  0  0  0  0  0  0  0  0  0  0  0  0  0  0
++         0  0  0  0  0  0  0  0  0  0  0  0  0  0  0  0  0
++         0  0  0  0  0  0  0  0  0  0  0  0  0  0  0  0  0
%c cc cc ccc ccc cccc cccc cccc cccc ccccc ccccc ccccc ccccc
%c cc cc ccc ccc cccc cccc cccc cccc ccccc ccccc ccccc ccccc
%f  0.0000000  0.000000000  0.00000000000  0.000000000000000
%f  0.0000000  0.000000000  0.00000000000  0.000000000000000
%i    0    0    0    0      0      0      0      0         0
%i    0    0    0    0      0      0      0      0         0
/*      NGA, ST. LOUIS,MO.                                  
/*   EPHEMERIS COMPUTED FROM 2 DAYS OF DATA                 
/*   EPOCHA v8 SMOOTHER                                     
/*   G2139 IERS2010 SATIGS SATAPC                           
*  2023  8 19  6 25  0.00000000
P  1  13977.310073 -22021.814975  -4254.033024    168.074274                    
V  1   4753.490107  -2613.503203  32020.205201     -0.013446                    
P  2  16637.209329 -20209.276306   4416.238283   -563.856774                    
V  2   -491.224349   5636.911163  31363.122413      0.041833                    
P  3   9660.827804 -13030.623302 -21151.949331   -180.021549                    
V  3  26173.517426   4166.247733   9561.947811      0.185631                    
P  4   2955.706297 -21700.089005 -14932.483404    130.031616                    
V  4   8605.076706  17088.670993 -23230.986238      0.114589                    
P  5 -23287.789321   5843.875895  11287.576965   -139.367506                    
V  5 -14326.966615  -3441.632453 -27230.591393     -0.014600                    
P  6 -14028.514420  -5375.636340 -21853.233592    564.216321                    
V  6  16919.601632 -22059.920011  -5330.609063     -0.054060                    
P  7    316.460034 -20470.669656  17127.082596     91.676763                    
V  7  14522.123985 -15413.617584 -19700.237325     -0.107512                    
P  8  10394.597926 -12590.297430  20797.928423   -137.904021                    
V  8  11825.893464  23933.595888   8937.172894     -0.019473                    
P  9  -5393.172634 -24960.977343  -7291.997740    -82.843713                    
V  9   6259.103700   7263.233654 -29860.021962      0.098609                    
P 10  20923.965331  11161.059945  12463.083616    -49.869878                    
V 10 -15462.563689   -442.507527  26429.211474     -0.015541                    
P 11 -20357.811435   7841.592283 -15103.973948   -327.599050                    
V 11  10935.436209 -15912.580420 -23030.037086     -0.174780                    
P 12 -14295.468491  11050.200396 -19715.271062   -414.622483                    
V 12 -23733.625711  -6025.166755  14102.639154     -0.044875                    
P 13 -14498.156478   3499.941319  21788.734452    561.914762                    
V 13  -7124.507190 -27172.719408   -164.619135      0.047133                    
P 14 -17968.925961 -13396.510673  14399.379108    158.516272                    
V 14  18347.655284    646.527339  23368.066794      0.116268                    
P 15  -8433.429389  14695.883025  19924.395202     69.035741                    
V 15 -14735.207349 -22098.324153  10075.762596      0.036217                    
P 16  25626.820538    365.836533   7499.104280   -466.300389                    
V 16   9092.531166   4333.783196 -29610.413340      0.050361                    
P 17 -13304.889977 -21155.555919  -8392.376623    722.915799                    
V 17  -1374.225205 -11450.609870  29636.008690      0.004741                    
P 18    870.221243  19018.497787  18445.830961   -387.626227                    
V 18 -15698.564346  17474.854940 -17446.272352     -0.132818                    
P 19 -15596.225530 -15185.566719 -15652.741441    359.646093                    
V 19  -4069.284236 -18964.625967  22431.634285      0.051558                    
P 20 -26410.287042   1460.670612    580.306719    416.455371                    
V 20   -831.413977  -3315.813614 -31611.733940     -0.020285                    
P 21  17426.703609 -18300.933979   6993.379339    150.487237                    
V 21  -1742.958863   8863.103337  30655.102882     -0.006376                    
P 22 -22521.790239 -11189.861632   8559.950327    138.888758                    
V 22  10641.791677   -313.670676  29437.781397     -0.075133                    
P 23   9327.691717  14678.263168  20128.157221     56.922950                    
V 23 -25416.351846  -1719.253721  12869.462985      0.047579                    
P 24 -14734.725199  21768.409809   1105.000064   -294.114959                    
V 24  -2421.397342  -3737.110209  31384.534727     -0.114015                    
P 25    996.388973  15700.475002 -21732.875582    462.986860                    
V 25 -26703.663674  -2963.971802  -3151.993653      0.021466                    
P 26  26112.839447   4437.231474  -3859.685918    232.354191                    
V 26  -4919.230480   3040.273453 -30390.467692     -0.015333                    
P 27  15980.177304    578.071861  21023.500984    -24.588724                    
V 27  10045.626802  25270.449518  -7831.886335     -0.067030                    
P 28  13388.112976   7360.651598 -21747.713648     74.793709                    
V 28 -15855.195590  22544.074554  -2133.329567     -0.036576                    
P 29   2925.918993  25266.160105  -7511.840921   -608.027803                    
V 29  -5120.487222  -8302.404647 -30213.790459     -0.006906                    
P 30  -8393.817133 -14255.208154  20859.101414   -495.256242                    
V 30  16920.433477 -20223.434071  -7315.888888      0.031091                    
P 31  19207.513158  -3045.480627 -18453.644519   -222.073649                    
V 31 -13317.352840  18714.826173 -16702.470693     -0.006066                    
P 32  16236.894828  17598.614446 -11526.952271   -543.169477                    
V 32   3689.274728  14561.475387  26805.722142     -0.067569                    
EOF
